[{"OBJECT_NAME":"STARLINK-34867","OBJECT_ID":"2025-195B","EPOCH":"2026-03-09T18:07:16.043520","MEAN_MOTION":15.30209726,"ECCENTRICITY":0.00012203,"INCLINATION":53.156,"RA_OF_ASC_NODE":257.8795,"ARG_OF_PERICENTER":122.2141,"MEAN_ANOMALY":237.8979,"EPHEMERIS_TYPE":0,"CLASSIFICATION_TYPE":"U","NORAD_CAT_ID":65459,"ELEMENT_SET_NO":999,"REV_AT_EPOCH":3000,"BSTAR":0.00086453483,"MEAN_MOTION_DOT":0.00025341,"MEAN_MOTION_DDOT":0},{"OBJECT_NAME":"THORAD AGENA D DEB","OBJECT_ID":"1969-082CP","EPOCH":"2026-03-09T22:51:31.947840","MEAN_MOTION":15.31252047,"ECCENTRICITY":0.00108961,"INCLINATION":69.8927,"RA_OF_ASC_NODE":265.8646,"ARG_OF_PERICENTER":335.0972,"MEAN_ANOMALY":24.9676,"EPHEMERIS_TYPE":0,"CLASSIFICATION_TYPE":"U","NORAD_CAT_ID":4133,"ELEMENT_SET_NO":999,"REV_AT_EPOCH":97550,"BSTAR":0.0018489552,"MEAN_MOTION_DOT":0.00056347,"MEAN_MOTION_DDOT":0}]
